[{"OBJECT_NAME":"STARLINK-1373","OBJECT_ID":"2020-025P","EPOCH":"2026-03-09T10:32:30.631488","MEAN_MOTION":15.50709832,"ECCENTRICITY":0.00045735,"INCLINATION":53.0504,"RA_OF_ASC_NODE":90.168,"ARG_OF_PERICENTER":8.973,"MEAN_ANOMALY":351.1359,"EPHEMERIS_TYPE":0,"CLASSIFICATION_TYPE":"U","NORAD_CAT_ID":45544,"ELEMENT_SET_NO":999,"REV_AT_EPOCH":32530,"BSTAR":0.0015713795,"MEAN_MOTION_DOT":0.00092504,"MEAN_MOTION_DDOT":0},{"OBJECT_NAME":"OBJECT C","OBJECT_ID":"2023-003C","EPOCH":"2026-03-09T22:53:37.568256","MEAN_MOTION":15.5121963,"ECCENTRICITY":0.00046458,"INCLINATION":97.1598,"RA_OF_ASC_NODE":145.7069,"ARG_OF_PERICENTER":126.2552,"MEAN_ANOMALY":233.9131,"EPHEMERIS_TYPE":0,"CLASSIFICATION_TYPE":"U","NORAD_CAT_ID":55135,"ELEMENT_SET_NO":999,"REV_AT_EPOCH":17687,"BSTAR":0.00045849142,"MEAN_MOTION_DOT":0.00026795,"MEAN_MOTION_DDOT":0}]
